*******************************************************************************
JPL/HORIZONS                2867 Steins (1969 VC)          2023-Sep-04 11:20:23
Rec #:    2867 (+COV) Soln.date: 2023-Aug-23_03:14:37   # obs: 7202 (1951-2023)
 
IAU76/J2000 helio. ecliptic osc. elements (au, days, deg., period=Julian yrs):
 
  EPOCH=  2457701.5 ! 2016-Nov-09.00 (TDB)         Residual RMS= .23927
   EC= .1456639716771995   QR= 2.01959836336414    TP= 2457528.8230916657
   OM= 55.36652319535811   W=  251.155496795757    IN= 9.934607936576215
   A= 2.363939125134331    MA= 46.82565976675318   ADIST= 2.708279886904521
   PER= 3.63465            N= .271174995           ANGMOM= .026166316
   DAN= 2.42802            DDN= 2.20981            L= 306.2558204
   B= -9.3971318           MOID= 1.02994001        TP= 2016-May-20.3230916657
 
Asteroid physical parameters (km, seconds, rotational period in hours):
   GM= n.a.                RAD= 2.58               ROTPER= 6.049
   H= 13.05                G= .150                 B-V= n.a.
                           ALBEDO= .300            STYP= n.a.

ASTEROID comments: 
1: soln ref.= JPL#85, OCC=0
2: source=ORB
*******************************************************************************


*******************************************************************************
Ephemeris / API_USER Mon Sep  4 11:20:23 2023 Pasadena, USA      / Horizons
*******************************************************************************
Target body name: 2867 Steins (1969 VC)           {source: JPL#85}
Center body name: Solar System Barycenter (0)     {source: DE441}
Center-site name: BODY CENTER
*******************************************************************************
Start time      : A.D. 2023-Aug-12 00:00:00.0000 TDB
Stop  time      : A.D. 2023-Aug-13 00:00:00.0000 TDB
Step-size       : 2880 minutes
*******************************************************************************
Center geodetic : 0.0, 0.0, 0.0                   {E-lon(deg),Lat(deg),Alt(km)}
Center cylindric: 0.0, 0.0, 0.0                   {E-lon(deg),Dxy(km),Dz(km)}
Center radii    : (undefined)
Small perturbers: Yes                             {source: SB441-N16}
Output units    : KM-S
Calendar mode   : Mixed Julian/Gregorian
Output type     : GEOMETRIC cartesian states
Output format   : 2 (position and velocity)
Reference frame : Ecliptic of J2000.0
*******************************************************************************
Initial IAU76/J2000 heliocentric ecliptic osculating elements (au, days, deg.):
  EPOCH=  2457701.5 ! 2016-Nov-09.00 (TDB)         Residual RMS= .23927        
   EC= .1456639716771995   QR= 2.01959836336414    TP= 2457528.8230916657      
   OM= 55.36652319535811   W=  251.155496795757    IN= 9.934607936576215       
  Equivalent ICRF heliocentric cartesian coordinates (au, au/d):
   X= 2.122835040728426E+00  Y= 3.682518557361899E-01  Z=-1.433185807608153E-01
  VX= 1.112716061922332E-05 VY= 1.066060523739903E-02 VZ= 5.937620404342613E-03
Asteroid physical parameters (km, seconds, rotational period in hours):        
   GM= n.a.                RAD= 2.58               ROTPER= 6.049               
   H= 13.05                G= .150                 B-V= n.a.                   
                           ALBEDO= .300            STYP= n.a.                  
*******************************************************************************
JDTDB
   X     Y     Z
   VX    VY    VZ
*******************************************************************************
$$SOE
2460168.500000000 = A.D. 2023-Aug-12 00:00:00.0000 TDB 
 X = 1.508126531877212E+08 Y =-2.573689171724057E+08 Z =-4.747601851180845E+07
 VX= 1.897583307236349E+01 VY= 1.181476300938585E+01 VZ=-1.553929785109555E+00
$$EOE
*******************************************************************************
 
TIME

  Barycentric Dynamical Time ("TDB" or T_eph) output was requested. This
continuous coordinate time is equivalent to the relativistic proper time
of a clock at rest in a reference frame co-moving with the solar system
barycenter but outside the system's gravity well. It is the independent
variable in the solar system relativistic equations of motion.

  TDB runs at a uniform rate of one SI second per second and is independent
of irregularities in Earth's rotation.
 
CALENDAR SYSTEM

  Mixed calendar mode was active such that calendar dates after AD 1582-Oct-15
(if any) are in the modern Gregorian system. Dates prior to 1582-Oct-5 (if any)
are in the Julian calendar system, which is automatically extended for dates
prior to its adoption on 45-Jan-1 BC.  The Julian calendar is useful for
matching historical dates. The Gregorian calendar more accurately corresponds
to the Earth's orbital motion and seasons. A "Gregorian-only" calendar mode is
available if such physical events are the primary interest.

REFERENCE FRAME AND COORDINATES

  Ecliptic at the standard reference epoch

    Reference epoch: J2000.0
    X-Y plane: adopted Earth orbital plane at the reference epoch
               Note: IAU76 obliquity of 84381.448 arcseconds wrt ICRF X-Y plane
    X-axis   : ICRF
    Z-axis   : perpendicular to the X-Y plane in the directional (+ or -) sense
               of Earth's north pole at the reference epoch.

  Symbol meaning:

    JDTDB    Julian Day Number, Barycentric Dynamical Time
      X      X-component of position vector (km)
      Y      Y-component of position vector (km)
      Z      Z-component of position vector (km)
      VX     X-component of velocity vector (km/sec)                           
      VY     Y-component of velocity vector (km/sec)                           
      VZ     Z-component of velocity vector (km/sec)                           

ABERRATIONS AND CORRECTIONS

 Geometric state vectors have NO corrections or aberrations applied.

Computations by ...

    Solar System Dynamics Group, Horizons On-Line Ephemeris System
    4800 Oak Grove Drive, Jet Propulsion Laboratory
    Pasadena, CA  91109   USA

    General site: https://ssd.jpl.nasa.gov/
    Mailing list: https://ssd.jpl.nasa.gov/email_list.html
    System news : https://ssd.jpl.nasa.gov/horizons/news.html
    User Guide  : https://ssd.jpl.nasa.gov/horizons/manual.html
    Connect     : browser        https://ssd.jpl.nasa.gov/horizons/app.html#/x
                  API            https://ssd-api.jpl.nasa.gov/doc/horizons.html
                  command-line   telnet ssd.jpl.nasa.gov 6775
                  e-mail/batch   https://ssd.jpl.nasa.gov/ftp/ssd/hrzn_batch.txt
                  scripts        https://ssd.jpl.nasa.gov/ftp/ssd/SCRIPTS
    Author      : Jon.D.Giorgini@jpl.nasa.gov
*******************************************************************************
